STARLINK-34038          
1 63911U 25095X   25344.21591711  .00048792  00000+0  17689-2 0  9998
2 63911  43.0021 321.5453 0001336 274.2997  85.7702 15.27617731 34093
STARLINK-34031          
1 63912U 25095Y   25344.21977213  .00046740  00000+0  16956-2 0  9991
2 63912  43.0026 321.5744 0002348 280.1091  79.9495 15.27610881 34090
STARLINK-34070          
1 63913U 25095Z   25344.21205686  .00044898  00000+0  16303-2 0  9998
2 63913  43.0019 321.5124 0001258 274.2791  85.7917 15.27597777 34097
STARLINK-34068          
1 63914U 25095AA  25344.00562624  .00038611  00000+0  14047-2 0  9993
2 63914  43.0030 322.5432 0001332 273.0128  87.0571 15.27593102 34064
STARLINK-34076          
1 63915U 25095AB  25344.20820949  .00037874  00000+0  13769-2 0  9993
2 63915  43.0037 321.4835 0001406 265.4745  94.5946 15.27625153 34093
STARLINK-33910          
1 63916U 25095AC  25343.99020805  .00045588  00000+0  16553-2 0  9997
2 63916  43.0024 322.4244 0000969 266.4907  93.5834 15.27593310 34060
STARLINK-34075          
1 63917U 25095AD  25343.67483983  .00037121  00000+0  13513-2 0  9990
2 63917  43.0039 324.3609 0001985 275.8258  84.2367 15.27589724 34012
STARLINK-34012          
1 63926U 25098A   25343.72546719  .00005356  00000+0  45622-3 0  9998
2 63926  70.0013 141.4125 0003191 270.4914  89.5880 14.98342704 33116
STARLINK-33956          
1 63927U 25098B   25343.87996979 -.00163630  00000+0 -14204-1 0  9994
2 63927  70.0020 140.7413 0000642 276.2510  83.8576 14.97855702 33127
STARLINK-33997          
1 63928U 25098C   25344.13854588  .00006219  00000+0  52834-3 0  9994
2 63928  70.0014 140.4388 0003519 266.6852  93.3904 14.98346313 33155
STARLINK-33989          
1 63929U 25098D   25344.18043104  .00004768  00000+0  40703-3 0  9993
2 63929  70.0022 140.1910 0003206 268.9145  91.1647 14.98342116 33164
STARLINK-33980          
1 63930U 25098E   25343.73381237  .00001323  00000+0  11861-3 0  9994
2 63930  70.0010 141.4421 0003516 268.2728  91.8028 14.98334418 33096
STARLINK-33994          
1 63931U 25098F   25344.17626672  .00006658  00000+0  56500-3 0  9994
2 63931  70.0014 140.1766 0002962 279.6454  80.4371 14.98348660 33162
STARLINK-33971          
1 63932U 25098G   25343.86332606  .00004974  00000+0  42423-3 0  9999
2 63932  70.0013 141.0902 0003177 271.2542  88.8253 14.98344086 33113
STARLINK-33877          
1 63933U 25098H   25344.15120747  .00004997  00000+0  42616-3 0  9993
2 63933  70.0013 140.0746 0003180 271.5737  88.5058 14.98342004 33165
STARLINK-33895          
1 63934U 25098J   25344.15954818  .00001977  00000+0  17339-3 0  9997
2 63934  70.0020 140.1164 0003436 272.3821  87.6944 14.98333958 33168
