[{"OBJECT_NAME":"STARLINK-34038","OBJECT_ID":"2025-095X","EPOCH":"2025-12-10T05:10:55.238304","MEAN_MOTION":15.27617731,"ECCENTRICITY":0.00013367,"INCLINATION":43.0021,"RA_OF_ASC_NODE":321.5453,"ARG_OF_PERICENTER":274.2997,"MEAN_ANOMALY":85.7702,"EPHEMERIS_TYPE":0,"CLASSIFICATION_TYPE":"U","NORAD_CAT_ID":63911,"ELEMENT_SET_NO":999,"REV_AT_EPOCH":3409,"BSTAR":0.0017688602,"MEAN_MOTION_DOT":0.00048792,"MEAN_MOTION_DDOT":0},{"OBJECT_NAME":"STARLINK-34031","OBJECT_ID":"2025-095Y","EPOCH":"2025-12-10T05:16:28.312032","MEAN_MOTION":15.27610881,"ECCENTRICITY":0.00023482,"INCLINATION":43.0026,"RA_OF_ASC_NODE":321.5744,"ARG_OF_PERICENTER":280.1091,"MEAN_ANOMALY":79.9495,"EPHEMERIS_TYPE":0,"CLASSIFICATION_TYPE":"U","NORAD_CAT_ID":63912,"ELEMENT_SET_NO":999,"REV_AT_EPOCH":3409,"BSTAR":0.001695627,"MEAN_MOTION_DOT":0.0004674,"MEAN_MOTION_DDOT":0},{"OBJECT_NAME":"STARLINK-34070","OBJECT_ID":"2025-095Z","EPOCH":"2025-12-10T05:05:21.712704","MEAN_MOTION":15.27597777,"ECCENTRICITY":0.00012581,"INCLINATION":43.0019,"RA_OF_ASC_NODE":321.5124,"ARG_OF_PERICENTER":274.2791,"MEAN_ANOMALY":85.7917,"EPHEMERIS_TYPE":0,"CLASSIFICATION_TYPE":"U","NORAD_CAT_ID":63913,"ELEMENT_SET_NO":999,"REV_AT_EPOCH":3409,"BSTAR":0.0016302963,"MEAN_MOTION_DOT":0.00044898,"MEAN_MOTION_DDOT":0},{"OBJECT_NAME":"STARLINK-34068","OBJECT_ID":"2025-095AA","EPOCH":"2025-12-10T00:08:06.107136","MEAN_MOTION":15.27593102,"ECCENTRICITY":0.00013327,"INCLINATION":43.003,"RA_OF_ASC_NODE":322.5432,"ARG_OF_PERICENTER":273.0128,"MEAN_ANOMALY":87.0571,"EPHEMERIS_TYPE":0,"CLASSIFICATION_TYPE":"U","NORAD_CAT_ID":63914,"ELEMENT_SET_NO":999,"REV_AT_EPOCH":3406,"BSTAR":0.0014047397,"MEAN_MOTION_DOT":0.00038611,"MEAN_MOTION_DDOT":0},{"OBJECT_NAME":"STARLINK-34076","OBJECT_ID":"2025-095AB","EPOCH":"2025-12-10T04:59:49.299936","MEAN_MOTION":15.27625153,"ECCENTRICITY":0.00014062,"INCLINATION":43.0037,"RA_OF_ASC_NODE":321.4835,"ARG_OF_PERICENTER":265.4745,"MEAN_ANOMALY":94.5946,"EPHEMERIS_TYPE":0,"CLASSIFICATION_TYPE":"U","NORAD_CAT_ID":63915,"ELEMENT_SET_NO":999,"REV_AT_EPOCH":3409,"BSTAR":0.0013768766,"MEAN_MOTION_DOT":0.00037874,"MEAN_MOTION_DDOT":0},{"OBJECT_NAME":"STARLINK-33910","OBJECT_ID":"2025-095AC","EPOCH":"2025-12-09T23:45:53.975520","MEAN_MOTION":15.2759331,"ECCENTRICITY":9.697e-5,"INCLINATION":43.0024,"RA_OF_ASC_NODE":322.4244,"ARG_OF_PERICENTER":266.4907,"MEAN_ANOMALY":93.5834,"EPHEMERIS_TYPE":0,"CLASSIFICATION_TYPE":"U","NORAD_CAT_ID":63916,"ELEMENT_SET_NO":999,"REV_AT_EPOCH":3406,"BSTAR":0.001655289,"MEAN_MOTION_DOT":0.00045588,"MEAN_MOTION_DDOT":0},{"OBJECT_NAME":"STARLINK-34075","OBJECT_ID":"2025-095AD","EPOCH":"2025-12-09T16:11:46.161312","MEAN_MOTION":15.27589724,"ECCENTRICITY":0.00019853,"INCLINATION":43.0039,"RA_OF_ASC_NODE":324.3609,"ARG_OF_PERICENTER":275.8258,"MEAN_ANOMALY":84.2367,"EPHEMERIS_TYPE":0,"CLASSIFICATION_TYPE":"U","NORAD_CAT_ID":63917,"ELEMENT_SET_NO":999,"REV_AT_EPOCH":3401,"BSTAR":0.0013512762,"MEAN_MOTION_DOT":0.00037121,"MEAN_MOTION_DDOT":0},{"OBJECT_NAME":"STARLINK-34012","OBJECT_ID":"2025-098A","EPOCH":"2025-12-09T17:24:40.365216","MEAN_MOTION":14.98342704,"ECCENTRICITY":0.00031912,"INCLINATION":70.0013,"RA_OF_ASC_NODE":141.4125,"ARG_OF_PERICENTER":270.4914,"MEAN_ANOMALY":89.588,"EPHEMERIS_TYPE":0,"CLASSIFICATION_TYPE":"U","NORAD_CAT_ID":63926,"ELEMENT_SET_NO":999,"REV_AT_EPOCH":3311,"BSTAR":0.00045621623,"MEAN_MOTION_DOT":5.356e-5,"MEAN_MOTION_DDOT":0},{"OBJECT_NAME":"STARLINK-33956","OBJECT_ID":"2025-098B","EPOCH":"2025-12-09T21:07:09.389856","MEAN_MOTION":14.97855702,"ECCENTRICITY":6.423e-5,"INCLINATION":70.002,"RA_OF_ASC_NODE":140.7413,"ARG_OF_PERICENTER":276.251,"MEAN_ANOMALY":83.8576,"EPHEMERIS_TYPE":0,"CLASSIFICATION_TYPE":"U","NORAD_CAT_ID":63927,"ELEMENT_SET_NO":999,"REV_AT_EPOCH":3312,"BSTAR":-0.014203962,"MEAN_MOTION_DOT":-0.0016363,"MEAN_MOTION_DDOT":0},{"OBJECT_NAME":"STARLINK-33997","OBJECT_ID":"2025-098C","EPOCH":"2025-12-10T03:19:30.364032","MEAN_MOTION":14.98346313,"ECCENTRICITY":0.00035197,"INCLINATION":70.0014,"RA_OF_ASC_NODE":140.4388,"ARG_OF_PERICENTER":266.6852,"MEAN_ANOMALY":93.3904,"EPHEMERIS_TYPE":0,"CLASSIFICATION_TYPE":"U","NORAD_CAT_ID":63928,"ELEMENT_SET_NO":999,"REV_AT_EPOCH":3315,"BSTAR":0.00052833753,"MEAN_MOTION_DOT":6.219e-5,"MEAN_MOTION_DDOT":0},{"OBJECT_NAME":"STARLINK-33989","OBJECT_ID":"2025-098D","EPOCH":"2025-12-10T04:19:49.241856","MEAN_MOTION":14.98342116,"ECCENTRICITY":0.00032067,"INCLINATION":70.0022,"RA_OF_ASC_NODE":140.191,"ARG_OF_PERICENTER":268.9145,"MEAN_ANOMALY":91.1647,"EPHEMERIS_TYPE":0,"CLASSIFICATION_TYPE":"U","NORAD_CAT_ID":63929,"ELEMENT_SET_NO":999,"REV_AT_EPOCH":3316,"BSTAR":0.00040702701,"MEAN_MOTION_DOT":4.768e-5,"MEAN_MOTION_DDOT":0},{"OBJECT_NAME":"STARLINK-33980","OBJECT_ID":"2025-098E","EPOCH":"2025-12-09T17:36:41.388768","MEAN_MOTION":14.98334418,"ECCENTRICITY":0.00035162,"INCLINATION":70.001,"RA_OF_ASC_NODE":141.4421,"ARG_OF_PERICENTER":268.2728,"MEAN_ANOMALY":91.8028,"EPHEMERIS_TYPE":0,"CLASSIFICATION_TYPE":"U","NORAD_CAT_ID":63930,"ELEMENT_SET_NO":999,"REV_AT_EPOCH":3309,"BSTAR":0.00011860758,"MEAN_MOTION_DOT":1.323e-5,"MEAN_MOTION_DDOT":0},{"OBJECT_NAME":"STARLINK-33994","OBJECT_ID":"2025-098F","EPOCH":"2025-12-10T04:13:49.444608","MEAN_MOTION":14.9834866,"ECCENTRICITY":0.00029629,"INCLINATION":70.0014,"RA_OF_ASC_NODE":140.1766,"ARG_OF_PERICENTER":279.6454,"MEAN_ANOMALY":80.4371,"EPHEMERIS_TYPE":0,"CLASSIFICATION_TYPE":"U","NORAD_CAT_ID":63931,"ELEMENT_SET_NO":999,"REV_AT_EPOCH":3316,"BSTAR":0.00056499576,"MEAN_MOTION_DOT":6.658e-5,"MEAN_MOTION_DDOT":0},{"OBJECT_NAME":"STARLINK-33971","OBJECT_ID":"2025-098G","EPOCH":"2025-12-09T20:43:11.371584","MEAN_MOTION":14.98344086,"ECCENTRICITY":0.00031775,"INCLINATION":70.0013,"RA_OF_ASC_NODE":141.0902,"ARG_OF_PERICENTER":271.2542,"MEAN_ANOMALY":88.8253,"EPHEMERIS_TYPE":0,"CLASSIFICATION_TYPE":"U","NORAD_CAT_ID":63932,"ELEMENT_SET_NO":999,"REV_AT_EPOCH":3311,"BSTAR":0.00042423289,"MEAN_MOTION_DOT":4.974e-5,"MEAN_MOTION_DDOT":0},{"OBJECT_NAME":"STARLINK-33877","OBJECT_ID":"2025-098H","EPOCH":"2025-12-10T03:37:44.325408","MEAN_MOTION":14.98342004,"ECCENTRICITY":0.00031803,"INCLINATION":70.0013,"RA_OF_ASC_NODE":140.0746,"ARG_OF_PERICENTER":271.5737,"MEAN_ANOMALY":88.5058,"EPHEMERIS_TYPE":0,"CLASSIFICATION_TYPE":"U","NORAD_CAT_ID":63933,"ELEMENT_SET_NO":999,"REV_AT_EPOCH":3316,"BSTAR":0.00042616002,"MEAN_MOTION_DOT":4.997e-5,"MEAN_MOTION_DDOT":0},{"OBJECT_NAME":"STARLINK-33895","OBJECT_ID":"2025-098J","EPOCH":"2025-12-10T03:49:44.962752","MEAN_MOTION":14.98333958,"ECCENTRICITY":0.00034367,"INCLINATION":70.002,"RA_OF_ASC_NODE":140.1164,"ARG_OF_PERICENTER":272.3821,"MEAN_ANOMALY":87.6944,"EPHEMERIS_TYPE":0,"CLASSIFICATION_TYPE":"U","NORAD_CAT_ID":63934,"ELEMENT_SET_NO":999,"REV_AT_EPOCH":3316,"BSTAR":0.00017339386,"MEAN_MOTION_DOT":1.977e-5,"MEAN_MOTION_DDOT":0}]
